[{"OBJECT_NAME":"OBJECT B","OBJECT_ID":"2024-153B","EPOCH":"2026-03-09T23:15:18.632160","MEAN_MOTION":15.30512917,"ECCENTRICITY":0.00113423,"INCLINATION":97.6622,"RA_OF_ASC_NODE":204.9195,"ARG_OF_PERICENTER":149.8438,"MEAN_ANOMALY":210.3457,"EPHEMERIS_TYPE":0,"CLASSIFICATION_TYPE":"U","NORAD_CAT_ID":60746,"ELEMENT_SET_NO":999,"REV_AT_EPOCH":8476,"BSTAR":0.00066193599,"MEAN_MOTION_DOT":0.00019515,"MEAN_MOTION_DDOT":0},{"OBJECT_NAME":"STARLINK-32444","OBJECT_ID":"2024-217S","EPOCH":"2026-03-09T15:28:29.449920","MEAN_MOTION":15.30185337,"ECCENTRICITY":0.0001041,"INCLINATION":53.1581,"RA_OF_ASC_NODE":194.1821,"ARG_OF_PERICENTER":71.1129,"MEAN_ANOMALY":288.9984,"EPHEMERIS_TYPE":0,"CLASSIFICATION_TYPE":"U","NORAD_CAT_ID":62073,"ELEMENT_SET_NO":999,"REV_AT_EPOCH":7341,"BSTAR":0.00098311,"MEAN_MOTION_DOT":0.00028857,"MEAN_MOTION_DDOT":0}]
